[{"COMMENT":"GENERATED VIA SPACETRACK.ORG API","ORIGINATOR":"18 SPCS","NORAD_CAT_ID":"43476","OBJECT_NAME":"GRACE-FO 1","OBJECT_TYPE":"PAYLOAD","CLASSIFICATION_TYPE":"U","INTLDES":"18047A","EPOCH":"2023-12-19 13:31:58","EPOCH_MICROSECONDS":"793088","MEAN_MOTION":"15.27613186","ECCENTRICITY":"0.0015992","INCLINATION":"88.9824","RA_OF_ASC_NODE":"323.9213","ARG_OF_PERICENTER":"52.5539","MEAN_ANOMALY":"307.7163","EPHEMERIS_TYPE":"0","ELEMENT_SET_NO":"999","REV_AT_EPOCH":"31028","BSTAR":"0.00016855","MEAN_MOTION_DOT":"0.00004593","MEAN_MOTION_DDOT":"0","FILE":"4140211","TLE_LINE0":"0 GRACE-FO 1","TLE_LINE1":"1 43476U 18047A   23353.56387492  .00004593  00000-0  16855-3 0  9993","TLE_LINE2":"2 43476  88.9824 323.9213 0015992  52.5539 307.7163 15.27613186310284","OBJECT_ID":"2018-047A","OBJECT_NUMBER":"43476","SEMIMAJOR_AXIS":"6861.087","PERIOD":"94.265","APOGEE":"493.924","PERIGEE":"471.979","DECAYED":"0"},{"COMMENT":"GENERATED VIA SPACETRACK.ORG API","ORIGINATOR":"18 SPCS","NORAD_CAT_ID":"43476","OBJECT_NAME":"GRACE-FO 1","OBJECT_TYPE":"PAYLOAD","CLASSIFICATION_TYPE":"U","INTLDES":"18047A","EPOCH":"2023-12-19 19:49:18","EPOCH_MICROSECONDS":"127200","MEAN_MOTION":"15.27615336","ECCENTRICITY":"0.0015957","INCLINATION":"88.9824","RA_OF_ASC_NODE":"323.8854","ARG_OF_PERICENTER":"51.6909","MEAN_ANOMALY":"308.5772","EPHEMERIS_TYPE":"0","ELEMENT_SET_NO":"999","REV_AT_EPOCH":"31032","BSTAR":"0.00016167","MEAN_MOTION_DOT":"0.00004407","MEAN_MOTION_DDOT":"0","FILE":"4140263","TLE_LINE0":"0 GRACE-FO 1","TLE_LINE1":"1 43476U 18047A   23353.82590425  .00004407  00000-0  16167-3 0  9994","TLE_LINE2":"2 43476  88.9824 323.8854 0015957  51.6909 308.5772 15.27615336310325","OBJECT_ID":"2018-047A","OBJECT_NUMBER":"43476","SEMIMAJOR_AXIS":"6861.080","PERIOD":"94.265","APOGEE":"493.894","PERIGEE":"471.997","DECAYED":"0"},{"COMMENT":"GENERATED VIA SPACETRACK.ORG API","ORIGINATOR":"18 SPCS","NORAD_CAT_ID":"43476","OBJECT_NAME":"GRACE-FO 1","OBJECT_TYPE":"PAYLOAD","CLASSIFICATION_TYPE":"U","INTLDES":"18047A","EPOCH":"2023-12-20 13:06:56","EPOCH_MICROSECONDS":"70720","MEAN_MOTION":"15.27623407","ECCENTRICITY":"0.0015873","INCLINATION":"88.9823","RA_OF_ASC_NODE":"323.7868","ARG_OF_PERICENTER":"49.3669","MEAN_ANOMALY":"310.8958","EPHEMERIS_TYPE":"0","ELEMENT_SET_NO":"999","REV_AT_EPOCH":"31043","BSTAR":"0.00018502","MEAN_MOTION_DOT":"0.0000504","MEAN_MOTION_DDOT":"0","FILE":"4141011","TLE_LINE0":"0 GRACE-FO 1","TLE_LINE1":"1 43476U 18047A   23354.54648230  .00005040  00000-0  18502-3 0  9991","TLE_LINE2":"2 43476  88.9823 323.7868 0015873  49.3669 310.8958 15.27623407310434","OBJECT_ID":"2018-047A","OBJECT_NUMBER":"43476","SEMIMAJOR_AXIS":"6861.056","PERIOD":"94.264","APOGEE":"493.812","PERIGEE":"472.031","DECAYED":"0"},{"COMMENT":"GENERATED VIA SPACETRACK.ORG API","ORIGINATOR":"18 SPCS","NORAD_CAT_ID":"43476","OBJECT_NAME":"GRACE-FO 1","OBJECT_TYPE":"PAYLOAD","CLASSIFICATION_TYPE":"U","INTLDES":"18047A","EPOCH":"2023-12-20 22:32:54","EPOCH_MICROSECONDS":"810528","MEAN_MOTION":"15.27627965","ECCENTRICITY":"0.0015826","INCLINATION":"88.9822","RA_OF_ASC_NODE":"323.733","ARG_OF_PERICENTER":"48.0554","MEAN_ANOMALY":"312.2042","EPHEMERIS_TYPE":"0","ELEMENT_SET_NO":"999","REV_AT_EPOCH":"31049","BSTAR":"0.00019509","MEAN_MOTION_DOT":"0.00005313","MEAN_MOTION_DDOT":"0","FILE":"4141291","TLE_LINE0":"0 GRACE-FO 1","TLE_LINE1":"1 43476U 18047A   23354.93952327  .00005313  00000-0  19509-3 0  9990","TLE_LINE2":"2 43476  88.9822 323.7330 0015826  48.0554 312.2042 15.27627965310493","OBJECT_ID":"2018-047A","OBJECT_NUMBER":"43476","SEMIMAJOR_AXIS":"6861.042","PERIOD":"94.264","APOGEE":"493.766","PERIGEE":"472.049","DECAYED":"0"},{"COMMENT":"GENERATED VIA SPACETRACK.ORG API","ORIGINATOR":"18 SPCS","NORAD_CAT_ID":"43476","OBJECT_NAME":"GRACE-FO 1","OBJECT_TYPE":"PAYLOAD","CLASSIFICATION_TYPE":"U","INTLDES":"18047A","EPOCH":"2023-12-21 03:15:54","EPOCH_MICROSECONDS":"142848","MEAN_MOTION":"15.27629996","ECCENTRICITY":"0.0015795","INCLINATION":"88.9821","RA_OF_ASC_NODE":"323.706","ARG_OF_PERICENTER":"47.4501","MEAN_ANOMALY":"312.8079","EPHEMERIS_TYPE":"0","ELEMENT_SET_NO":"999","REV_AT_EPOCH":"31052","BSTAR":"0.00019722","MEAN_MOTION_DOT":"0.00005371","MEAN_MOTION_DDOT":"0","FILE":"4141321","TLE_LINE0":"0 GRACE-FO 1","TLE_LINE1":"1 43476U 18047A   23355.13604332  .00005371  00000-0  19722-3 0  9994","TLE_LINE2":"2 43476  88.9821 323.7060 0015795  47.4501 312.8079 15.27629996310528","OBJECT_ID":"2018-047A","OBJECT_NUMBER":"43476","SEMIMAJOR_AXIS":"6861.036","PERIOD":"94.264","APOGEE":"493.738","PERIGEE":"472.064","DECAYED":"0"},{"COMMENT":"GENERATED VIA SPACETRACK.ORG API","ORIGINATOR":"18 SPCS","NORAD_CAT_ID":"43476","OBJECT_NAME":"GRACE-FO 1","OBJECT_TYPE":"PAYLOAD","CLASSIFICATION_TYPE":"U","INTLDES":"18047A","EPOCH":"2023-12-21 14:16:12","EPOCH_MICROSECONDS":"494784","MEAN_MOTION":"15.27634771","ECCENTRICITY":"0.0015723","INCLINATION":"88.9821","RA_OF_ASC_NODE":"323.6431","ARG_OF_PERICENTER":"45.9714","MEAN_ANOMALY":"314.2828","EPHEMERIS_TYPE":"0","ELEMENT_SET_NO":"999","REV_AT_EPOCH":"31059","BSTAR":"0.0001961","MEAN_MOTION_DOT":"0.00005341","MEAN_MOTION_DDOT":"0","FILE":"4141803","TLE_LINE0":"0 GRACE-FO 1","TLE_LINE1":"1 43476U 18047A   23355.59458906  .00005341  00000-0  19610-3 0  9991","TLE_LINE2":"2 43476  88.9821 323.6431 0015723  45.9714 314.2828 15.27634771310591","OBJECT_ID":"2018-047A","OBJECT_NUMBER":"43476","SEMIMAJOR_AXIS":"6861.022","PERIOD":"94.263","APOGEE":"493.675","PERIGEE":"472.100","DECAYED":"0"},{"COMMENT":"GENERATED VIA SPACETRACK.ORG API","ORIGINATOR":"18 SPCS","NORAD_CAT_ID":"43476","OBJECT_NAME":"GRACE-FO 1","OBJECT_TYPE":"PAYLOAD","CLASSIFICATION_TYPE":"U","INTLDES":"18047A","EPOCH":"2023-12-21 22:07:51","EPOCH_MICROSECONDS":"224160","MEAN_MOTION":"15.27638589","ECCENTRICITY":"0.0015679","INCLINATION":"88.982","RA_OF_ASC_NODE":"323.5982","ARG_OF_PERICENTER":"44.8685","MEAN_ANOMALY":"315.3829","EPHEMERIS_TYPE":"0","ELEMENT_SET_NO":"999","REV_AT_EPOCH":"31064","BSTAR":"0.00019572","MEAN_MOTION_DOT":"0.00005331","MEAN_MOTION_DDOT":"0","FILE":"4141951","TLE_LINE0":"0 GRACE-FO 1","TLE_LINE1":"1 43476U 18047A   23355.92212065  .00005331  00000-0  19572-3 0  9998","TLE_LINE2":"2 43476  88.9820 323.5982 0015679  44.8685 315.3829 15.27638589310645","OBJECT_ID":"2018-047A","OBJECT_NUMBER":"43476","SEMIMAJOR_AXIS":"6861.011","PERIOD":"94.263","APOGEE":"493.633","PERIGEE":"472.118","DECAYED":"0"},{"COMMENT":"GENERATED VIA SPACETRACK.ORG API","ORIGINATOR":"18 SPCS","NORAD_CAT_ID":"43476","OBJECT_NAME":"GRACE-FO 1","OBJECT_TYPE":"PAYLOAD","CLASSIFICATION_TYPE":"U","INTLDES":"18047A","EPOCH":"2023-12-22 10:42:29","EPOCH_MICROSECONDS":"52576","MEAN_MOTION":"15.27644526","ECCENTRICITY":"0.0015596","INCLINATION":"88.9819","RA_OF_ASC_NODE":"323.5264","ARG_OF_PERICENTER":"43.1727","MEAN_ANOMALY":"317.0742","EPHEMERIS_TYPE":"0","ELEMENT_SET_NO":"999","REV_AT_EPOCH":"31072","BSTAR":"0.00019582","MEAN_MOTION_DOT":"0.00005335","MEAN_MOTION_DDOT":"0","FILE":"4142305","TLE_LINE0":"0 GRACE-FO 1","TLE_LINE1":"1 43476U 18047A   23356.44616959  .00005335  00000-0  19582-3 0  9991","TLE_LINE2":"2 43476  88.9819 323.5264 0015596  43.1727 317.0742 15.27644526310723","OBJECT_ID":"2018-047A","OBJECT_NUMBER":"43476","SEMIMAJOR_AXIS":"6860.993","PERIOD":"94.263","APOGEE":"493.558","PERIGEE":"472.157","DECAYED":"0"},{"COMMENT":"GENERATED VIA SPACETRACK.ORG API","ORIGINATOR":"18 SPCS","NORAD_CAT_ID":"43476","OBJECT_NAME":"GRACE-FO 1","OBJECT_TYPE":"PAYLOAD","CLASSIFICATION_TYPE":"U","INTLDES":"18047A","EPOCH":"2023-12-22 13:51:08","EPOCH_MICROSECONDS":"468640","MEAN_MOTION":"15.27646882","ECCENTRICITY":"0.001557","INCLINATION":"88.9819","RA_OF_ASC_NODE":"323.5085","ARG_OF_PERICENTER":"42.7423","MEAN_ANOMALY":"317.5034","EPHEMERIS_TYPE":"0","ELEMENT_SET_NO":"999","REV_AT_EPOCH":"31074","BSTAR":"0.00021198","MEAN_MOTION_DOT":"0.00005773","MEAN_MOTION_DDOT":"0","FILE":"4142519","TLE_LINE0":"0 GRACE-FO 1","TLE_LINE1":"1 43476U 18047A   23356.57718135  .00005773  00000-0  21198-3 0  9996","TLE_LINE2":"2 43476  88.9819 323.5085 0015570  42.7423 317.5034 15.27646882310742","OBJECT_ID":"2018-047A","OBJECT_NUMBER":"43476","SEMIMAJOR_AXIS":"6860.986","PERIOD":"94.263","APOGEE":"493.533","PERIGEE":"472.168","DECAYED":"0"},{"COMMENT":"GENERATED VIA SPACETRACK.ORG API","ORIGINATOR":"18 SPCS","NORAD_CAT_ID":"43476","OBJECT_NAME":"GRACE-FO 1","OBJECT_TYPE":"PAYLOAD","CLASSIFICATION_TYPE":"U","INTLDES":"18047A","EPOCH":"2023-12-22 21:42:46","EPOCH_MICROSECONDS":"990656","MEAN_MOTION":"15.27649776","ECCENTRICITY":"0.001552","INCLINATION":"88.9819","RA_OF_ASC_NODE":"323.4636","ARG_OF_PERICENTER":"41.6184","MEAN_ANOMALY":"318.6244","EPHEMERIS_TYPE":"0","ELEMENT_SET_NO":"999","REV_AT_EPOCH":"31079","BSTAR":"0.00019128","MEAN_MOTION_DOT":"0.00005212","MEAN_MOTION_DDOT":"0","FILE":"4142803","TLE_LINE0":"0 GRACE-FO 1","TLE_LINE1":"1 43476U 18047A   23356.90471054  .00005212  00000-0  19128-3 0  9997","TLE_LINE2":"2 43476  88.9819 323.4636 0015520  41.6184 318.6244 15.27649776310795","OBJECT_ID":"2018-047A","OBJECT_NUMBER":"43476","SEMIMAJOR_AXIS":"6860.977","PERIOD":"94.262","APOGEE":"493.490","PERIGEE":"472.194","DECAYED":"0"}]